HAWK-A                  
1 43765U 18099H   26068.67628545  .00008617  00000+0  36104-3 0  9995
2 43765  97.4051 122.2425 0034260 275.5523  84.1807 15.23231043397949
STARLINK-36103          
1 66985U 25288AC  26068.16440462  .00026678  00000+0  97589-3 0  9997
2 66985  43.0021  26.7029 0001900 273.6990  86.3644 15.27565504 15207
